NORAD_CAT_ID,OBJECT_NAME,OBJECT_TYPE,EPOCH,MEAN_MOTION,ECCENTRICITY,INCLINATION,RA_OF_ASC_NODE,ARG_OF_PERICENTER,MEAN_ANOMALY,BSTAR,MEAN_MOTION_DOT,MEAN_MOTION_DDOT,TLE_LINE0,TLE_LINE1,TLE_LINE2,SEMIMAJOR_AXIS,PERIOD,APOGEE,PERIGEE,DECAYED
51855.0,STARLINK-3545,PAYLOAD,2022-10-26 02:25:37,15.08828778,0.0001739,53.2176,143.4492,51.5378,308.577,-4.2624e-05,-9.66e-06,0.0,0 STARLINK-3545,1 51855U 22022D   22299.10112733 -.00000966  00000-0 -42624-4 0  9999,2 51855  53.2176 143.4492 0001739  51.5378 308.5770 15.08828778 37190,6917.915,95.438,540.9830000000002,538.577,0.0
51855.0,STARLINK-3545,PAYLOAD,2022-10-26 19:54:52,15.08823836,0.0001709,53.2175,140.178,49.7242,310.3899,0.00016553,2.346e-05,0.0,0 STARLINK-3545,1 51855U 22022D   22299.82977357  .00002346  00000-0  16553-3 0  9992,2 51855  53.2175 140.1780 0001709  49.7242 310.3899 15.08823836 37305,6917.93,95.439,540.977,538.613,0.0
51855.0,STARLINK-3545,PAYLOAD,2022-10-27 07:02:34,15.08829787,0.0001758,53.2175,138.0967,49.99100000000001,310.1236,0.0002331999999999,3.424e-05,0.0,0 STARLINK-3545,1 51855U 22022D   22300.29345555  .00003424  00000-0  23320-3 0  9993,2 51855  53.2175 138.0967 0001758  49.9910 310.1236 15.08829787 37377,6917.9119999999975,95.438,540.993,538.56,0.0
51855.0,STARLINK-3545,PAYLOAD,2022-10-27 19:45:40,15.08832344,0.0001831999999999,53.2163,135.7183,48.5595,311.5554,0.00019101,2.753e-05,0.0,0 STARLINK-3545,1 51855U 22022D   22300.82338231  .00002753  00000-0  19101-3 0  9991,2 51855  53.2163 135.7183 0001832  48.5595 311.5554 15.08832344 37455,6917.904,95.438,541.036,538.501,0.0
51855.0,STARLINK-3545,PAYLOAD,2022-10-27 22:56:26,15.08833945,0.0001844999999999,53.2163,135.1236,48.7134,311.4017,0.00020092,2.9100000000000013e-05,0.0,0 STARLINK-3545,1 51855U 22022D   22300.95586226  .00002910  00000-0  20092-3 0  9990,2 51855  53.2163 135.1236 0001845  48.7134 311.4017 15.08833945 37476,6917.899,95.438,541.04,538.488,0.0
51855.0,STARLINK-3545,PAYLOAD,2022-10-28 19:36:26,15.08845982,0.000185,53.2167,131.2577,53.2019,306.9143,0.00021321,3.107e-05,0.0,0 STARLINK-3545,1 51855U 22022D   22301.81697844  .00003107  00000-0  21321-3 0  9990,2 51855  53.2167 131.2577 0001850  53.2019 306.9143 15.08845982 37602,6917.861999999999,95.437,541.007,538.447,0.0
51855.0,STARLINK-3545,PAYLOAD,2022-10-29 00:22:35,15.08852787,0.0001831,53.2166,130.3655,53.2817,306.8343,0.00015223,2.136e-05,0.0,0 STARLINK-3545,1 51855U 22022D   22302.01569412  .00002136  00000-0  15223-3 0  9997,2 51855  53.2166 130.3655 0001831  53.2817 306.8343 15.08852787 37638,6917.840999999999,95.437,540.9730000000002,538.44,0.0
51855.0,STARLINK-3545,PAYLOAD,2022-10-29 19:27:12,15.08867716,0.0001915,53.2165,126.797,52.6651,307.4515,0.00050953,7.837e-05,0.0,0 STARLINK-3545,1 51855U 22022D   22302.81056505  .00007837  00000-0  50953-3 0  9991,2 51855  53.2165 126.7970 0001915  52.6651 307.4515 15.08867716 37757,6917.795999999999,95.436,540.985,538.336,0.0
51855.0,STARLINK-3545,PAYLOAD,2022-10-30 00:13:21,15.08874507,0.0001933,53.2166,125.905,53.3009,306.8161,0.00060387,9.345e-05,0.0,0 STARLINK-3545,1 51855U 22022D   22303.00928044  .00009345  00000-0  60387-3 0  9997,2 51855  53.2166 125.9050 0001933  53.3009 306.8161 15.08874507 37782,6917.775,95.435,540.977,538.303,0.0
51855.0,STARLINK-3545,PAYLOAD,2022-10-30 20:53:22,15.0884761,0.0001851,53.2163,122.0375,45.2786,314.8356,-0.00026543,-4.511e-05,0.0,0 STARLINK-3545,1 51855U 22022D   22303.87039515 -.00004511  00000-0 -26543-3 0  9996,2 51855  53.2163 122.0375 0001851  45.2786 314.8356 15.08847610 37913,6917.857,95.437,541.003,538.442,0.0
51855.0,STARLINK-3545,PAYLOAD,2022-10-31 04:50:17,15.08847637,0.0001816,53.217,120.5522,52.7814,307.3344,-8.0953e-05,-1.577e-05,0.0,0 STARLINK-3545,1 51855U 22022D   22304.20159670 -.00001577  00000-0 -80953-4 0  9994,2 51855  53.2170 120.5522 0001816  52.7814 307.3344 15.08847637 37962,6917.857,95.437,540.9780000000002,538.466,0.0
51855.0,STARLINK-3545,PAYLOAD,2022-10-31 20:44:08,15.08857344,0.000179,53.2175,117.578,52.6046,307.5109,-6.2533000000000025e-06,-3.88e-06,0.0,0 STARLINK-3545,1 51855U 22022D   22304.86399095 -.00000388  00000-0 -62533-5 0  9997,2 51855  53.2175 117.5780 0001790  52.6046 307.5109 15.08857344 38065,6917.8269999999975,95.436,540.931,538.4540000000002,0.0
51855.0,STARLINK-3545,PAYLOAD,2022-10-31 23:54:54,15.08859486,0.0001799,53.2178,116.9835,57.6711,302.4455,1.9639e-05,2.5e-07,0.0,0 STARLINK-3545,1 51855U 22022D   22304.99646745  .00000025  00000-0  19639-4 0  9992,2 51855  53.2178 116.9835 0001799  57.6711 302.4455 15.08859486 38084,6917.821,95.436,540.93,538.441,0.0
51855.0,STARLINK-3545,PAYLOAD,2022-11-01 04:41:03,15.08860548,0.0001851999999999,53.2176,116.091,52.4369,307.6791,2.5781e-05,1.22e-06,0.0,0 STARLINK-3545,1 51855U 22022D   22305.19518448  .00000122  00000-0  25781-4 0  9996,2 51855  53.2176 116.0910 0001852  52.4369 307.6791 15.08860548 38114,6917.818,95.436,540.964,538.401,0.0
51855.0,STARLINK-3545,PAYLOAD,2022-11-01 18:59:33,15.08837552,0.0001671,53.2178,113.4147,46.752,313.3612,6.9101e-05,8.12e-06,0.0,0 STARLINK-3545,1 51855U 22022D   22305.79135425  .00000812  00000-0  69101-4 0  9992,2 51855  53.2178 113.4147 0001671  46.7520 313.3612 15.08837552 38208,6917.888000000001,95.438,540.909,538.597,0.0
51855.0,STARLINK-3545,PAYLOAD,2022-11-01 23:45:42,15.08838744,0.000172,53.2179,112.5228,50.8955,309.219,5.5583e-05,5.97e-06,0.0,0 STARLINK-3545,1 51855U 22022D   22305.99007374  .00000597  00000-0  55583-4 0  9994,2 51855  53.2179 112.5228 0001720  50.8955 309.2190 15.08838744 38234,6917.884,95.438,540.939,538.559,0.0
51855.0,STARLINK-3545,PAYLOAD,2022-11-02 18:50:20,15.08840706,0.0001768,53.218,108.9553,49.4708,310.6438,-5.5528e-05,-1.172e-05,0.0,0 STARLINK-3545,1 51855U 22022D   22306.78495467 -.00001172  00000-0 -55528-4 0  9997,2 51855  53.2180 108.9553 0001768  49.4708 310.6438 15.08840706 38353,6917.878000000002,95.438,540.966,538.52,0.0
51855.0,STARLINK-3545,PAYLOAD,2022-11-02 23:36:29,15.0884177,0.0001641,53.218,108.063,49.929,310.1846,-4.5564e-05,-1.013e-05,0.0,0 STARLINK-3545,1 51855U 22022D   22306.98367297 -.00001013  00000-0 -45564-4 0  9991,2 51855  53.2180 108.0630 0001641  49.9290 310.1846 15.08841770 38384,6917.875,95.437,540.875,538.605,0.0
51855.0,STARLINK-3545,PAYLOAD,2022-11-03 18:41:06,15.08848036,0.0001815,53.2181,104.4947,49.5677,310.5474,0.00017869,2.558e-05,0.0,0 STARLINK-3545,1 51855U 22022D   22307.77854198  .00002558  00000-0  17869-3 0  9999,2 51855  53.2181 104.4947 0001815  49.5677 310.5474 15.08848036 38501,6917.856,95.437,540.976,538.465,0.0
51855.0,STARLINK-3545,PAYLOAD,2022-11-03 20:16:29,15.08850205,0.000182,53.2181,104.1973,50.17,309.9452,0.00019929,2.886e-05,0.0,0 STARLINK-3545,1 51855U 22022D   22307.84478039  .00002886  00000-0  19929-3 0  9996,2 51855  53.2181 104.1973 0001820  50.1700 309.9452 15.08850205 38518,6917.849,95.437,540.9730000000002,538.455,0.0
51855.0,STARLINK-3545,PAYLOAD,2022-11-04 12:10:20,15.08852281,0.0001895,53.2172,101.2237,51.9417,308.1746,0.00021378,3.117e-05,0.0,0 STARLINK-3545,1 51855U 22022D   22308.50718175  .00003117  00000-0  21378-3 0  9997,2 51855  53.2172 101.2237 0001895  51.9417 308.1746 15.08852281 38619,6917.843000000003,95.437,541.019,538.3969999999998,0.0
51855.0,STARLINK-3545,PAYLOAD,2022-11-04 20:07:16,15.08841033,0.0001838,53.2172,99.7365,51.7885,308.3272,0.00011294,1.51e-05,0.0,0 STARLINK-3545,1 51855U 22022D   22308.83838645  .00001510  00000-0  11294-3 0  9999,2 51855  53.2172  99.7365 0001838  51.7885 308.3272 15.08841033 38660,6917.877,95.437,541.014,538.471,0.0
51855.0,STARLINK-3545,PAYLOAD,2022-11-05 12:01:09,15.08821236,0.0001768,53.2182,96.7625,11.1649,348.9382,-0.00011463,-2.111e-05,0.0,0 STARLINK-3545,1 51855U 22022D   22309.50080355 -.00002111  00000-0 -11463-3 0  9999,2 51855  53.2182  96.7625 0001768  11.1649 348.9382 15.08821236 38763,6917.938,95.439,541.026,538.58,0.0
51855.0,STARLINK-3545,PAYLOAD,2022-11-05 16:47:18,15.08827103,0.0001664,53.2184,95.8712,42.5608,317.5513,-0.00015188,-2.704e-05,0.0,0 STARLINK-3545,1 51855U 22022D   22309.69952189 -.00002704  00000-0 -15188-3 0  9998,2 51855  53.2184  95.8712 0001664  42.5608 317.5513 15.08827103 38790,6917.92,95.438,540.936,538.634,0.0
51855.0,STARLINK-3545,PAYLOAD,2022-11-06 02:19:37,15.08833445,0.0001805,53.2186,94.0874,49.1477,310.9671,-9.5942e-05,-1.814e-05,0.0,0 STARLINK-3545,1 51855U 22022D   22310.09695819 -.00001814  00000-0 -95942-4 0  9996,2 51855  53.2186  94.0874 0001805  49.1477 310.9671 15.08833445 38851,6917.9,95.438,541.014,538.5169999999998,0.0
51855.0,STARLINK-3545,PAYLOAD,2022-11-06 11:51:55,15.08835123,0.000177,53.2184,92.3031,47.5875,312.5266,1.3149e-06,-2.67e-06,0.0,0 STARLINK-3545,1 51855U 22022D   22310.49439687 -.00000267  00000-0  13149-5 0  9999,2 51855  53.2184  92.3031 0001770  47.5875 312.5266 15.08835123 38910,6917.895,95.438,540.985,538.536,0.0
51855.0,STARLINK-3545,PAYLOAD,2022-11-06 19:48:51,15.08838335,0.0001838,53.2176,90.8159,45.6222,314.492,0.00025706,3.805e-05,0.0,0 STARLINK-3545,1 51855U 22022D   22310.82559572  .00003805  00000-0  25706-3 0  9992,2 51855  53.2176  90.8159 0001838  45.6222 314.4920 15.08838335 38966,6917.885,95.438,541.0219999999998,538.479,0.0
51855.0,STARLINK-3545,PAYLOAD,2022-11-07 19:39:38,15.08850108,0.0001896,53.2176,86.3556,46.1422,313.9726,0.00043015,6.566e-05,0.0,0 STARLINK-3545,1 51855U 22022D   22311.81919638  .00006566  00000-0  43015-3 0  9995,2 51855  53.2176  86.3556 0001896  46.1422 313.9726 15.08850108 39117,6917.849,95.437,541.026,538.403,0.0
51855.0,STARLINK-3545,PAYLOAD,2022-11-08 02:01:10,15.08865551,0.0001902,53.2177,85.1664,45.3304,314.7843,0.00075548,0.00011764,0.0,0 STARLINK-3545,1 51855U 22022D   22312.08415056  .00011764  00000-0  75548-3 0  9992,2 51855  53.2177  85.1664 0001902  45.3304 314.7843 15.08865551 39154,6917.802,95.436,540.9830000000002,538.352,0.0
